NORAD_CAT_ID,OBJECT_NAME,OBJECT_TYPE,EPOCH,MEAN_MOTION,ECCENTRICITY,INCLINATION,RA_OF_ASC_NODE,ARG_OF_PERICENTER,MEAN_ANOMALY,BSTAR,MEAN_MOTION_DOT,MEAN_MOTION_DDOT,TLE_LINE0,TLE_LINE1,TLE_LINE2,SEMIMAJOR_AXIS,PERIOD,APOGEE,PERIGEE,DECAYED
53631.0,STARLINK-4599,PAYLOAD,2022-11-18 22:00:00,15.08853021,0.0001938,53.2171,251.1325,44.2073,145.9897,-0.00056246,-9.232e-05,0.0,0 STARLINK-4599,1 53631U 22104AV  22322.91667824 -.00009232  00000-0 -56246-3 0  9995,2 53631  53.2171 251.1325 0001938  44.2073 145.9897 15.08853021  1309,6917.840999999999,95.437,541.0459999999998,538.365,0.0
53631.0,STARLINK-4599,PAYLOAD,2022-11-19 14:00:01,15.08835503,0.0001841,53.2174,248.1393,39.9161,173.5038,-0.0008795,-0.00014257,0.0,0 STARLINK-4599,1 53631U 22104AV  22323.58334491 -.00014257  00000-0 -87950-3 0  9999,2 53631  53.2174 248.1393 0001841  39.9161 173.5038 15.08835503  1304,6917.894,95.438,541.033,538.486,0.0
53631.0,STARLINK-4599,PAYLOAD,2022-11-19 22:00:00,15.08832353,0.0001852,53.2176,246.6434,39.8334,185.1654,-0.0012808,-0.0002061,0.0,0 STARLINK-4599,1 53631U 22104AV  22323.91667824 -.00020610  00000-0 -12808-2 0  9994,2 53631  53.2176 246.6434 0001852  39.8334 185.1654 15.08832353  1301,6917.904,95.438,541.05,538.488,0.0
53631.0,STARLINK-4599,PAYLOAD,2022-11-20 14:00:01,15.08818816,0.0001838,53.2177,243.6501,39.5881,208.5719,0.0022435,0.00035577,0.0,0 STARLINK-4599,1 53631U 22104AV  22324.58334491  .00035577  00000-0  22435-2 0  9992,2 53631  53.2177 243.6501 0001838  39.5881 208.5719 15.08818816 13136,6917.945,95.439,541.082,538.539,0.0
53631.0,STARLINK-4599,PAYLOAD,2022-11-20 22:00:00,15.08862658,0.0001867,53.2179,242.1545,41.1685,218.5717,-0.0013939,-0.00022418,0.0,0 STARLINK-4599,1 53631U 22104AV  22324.91667824 -.00022418  00000-0 -13939-2 0  9999,2 53631  53.2179 242.1545 0001867  41.1685 218.5717 15.08862658  1301,6917.811,95.436,540.9680000000002,538.385,0.0
53631.0,STARLINK-4599,PAYLOAD,2022-11-21 08:00:01,15.08844606,0.0001961,53.2175,240.2846,35.6426,328.6074,-0.00059637,-9.768e-05,0.0,0 STARLINK-4599,1 53631U 22104AV  22325.33334491 -.00009768  00000-0 -59637-3 0  9996,2 53631  53.2175 240.2846 0001961  35.6426 328.6074 15.08844606 13255,6917.866,95.437,541.0880000000002,538.375,0.0
53631.0,STARLINK-4599,PAYLOAD,2022-11-21 14:00:01,15.08819275,0.0001785,53.2178,239.1612,39.4352,243.5194,0.0028026999999999,0.00044574,0.0,0 STARLINK-4599,1 53631U 22104AV  22325.58334491  .00044574  00000-0  28027-2 0  9993,2 53631  53.2178 239.1612 0001785  39.4352 243.5194 15.08819275  1305,6917.944,95.439,541.044,538.5740000000002,0.0
53631.0,STARLINK-4599,PAYLOAD,2022-11-22 00:00:00,15.08865355,0.0001912,53.2177,237.2921,38.8371,348.6069,-0.0013755,-0.00022128,0.0,0 STARLINK-4599,1 53631U 22104AV  22326.00001157 -.00022128  00000-0 -13755-2 0  9996,2 53631  53.2177 237.2921 0001912  38.8371 348.6069 15.08865355  1300,6917.803000000001,95.436,540.991,538.345,0.0
53631.0,STARLINK-4599,PAYLOAD,2022-11-22 08:00:01,15.08870391,0.0001947,53.2172,235.7957,36.2536,2.8027,-0.0043409,-0.00068773,0.0,0 STARLINK-4599,1 53631U 22104AV  22326.33334491 -.00068773  00000-0 -43409-2 0  9997,2 53631  53.2172 235.7957 0001947  36.2536   2.8027 15.08870391 13403,6917.7869999999975,95.436,540.999,538.306,0.0
53631.0,STARLINK-4599,PAYLOAD,2022-11-22 14:00:01,15.08802235,0.000179,53.2173,234.6722,41.7406,276.0945,0.0019025,0.00030089,0.0,0 STARLINK-4599,1 53631U 22104AV  22326.58335648  .00030089  00000-0  19025-2 0  9993,2 53631  53.2173 234.6722 0001790  41.7406 276.0945 15.08802235  1307,6917.996,95.44,541.099,538.623,0.0
53631.0,STARLINK-4599,PAYLOAD,2022-11-22 22:00:00,15.08834439,0.0001916,53.2173,233.1771,42.6236,286.7055,-0.0012024,-0.00019371,0.0,0 STARLINK-4599,1 53631U 22104AV  22326.91667824 -.00019371  00000-0 -12024-2 0  9999,2 53631  53.2173 233.1771 0001916  42.6236 286.7055 15.08834439 13490,6917.897,95.438,541.0880000000002,538.437,0.0
53631.0,STARLINK-4599,PAYLOAD,2022-11-23 14:00:01,15.08810586,0.0001871,53.2167,230.1836,44.8695,307.6286,0.0032753,0.00052183,0.0,0 STARLINK-4599,1 53631U 22104AV  22327.58334491  .00052183  00000-0  32753-2 0  9991,2 53631  53.2167 230.1836 0001871  44.8695 307.6286 15.08810586  1308,6917.97,95.439,541.13,538.5409999999998,0.0
53631.0,STARLINK-4599,PAYLOAD,2022-11-23 16:00:00,15.0881923,0.000188,53.2167,229.8093,46.2169,39.1738,0.0029344,0.00046696,0.0,0 STARLINK-4599,1 53631U 22104AV  22327.66667824  .00046696  00000-0  29344-2 0  9993,2 53631  53.2167 229.8093 0001880  46.2169  39.1738 15.08819230 13600,6917.944,95.439,541.109,538.508,0.0
53631.0,STARLINK-4599,PAYLOAD,2022-11-23 22:00:00,15.08860459,0.0001992,53.2167,228.6885,43.6375,320.4376,-0.0021283,-0.0003402,0.0,0 STARLINK-4599,1 53631U 22104AV  22327.91667824 -.00034020  00000-0 -21283-2 0  9995,2 53631  53.2167 228.6885 0001992  43.6375 320.4376 15.08860459  1307,6917.818,95.436,541.061,538.305,0.0
53631.0,STARLINK-4599,PAYLOAD,2022-11-24 08:00:01,15.08843032,0.0002021,53.2163,226.8181,39.8143,68.7635,-0.0015819,-0.00025379,0.0,0 STARLINK-4599,1 53631U 22104AV  22328.33334491 -.00025379  00000-0 -15819-2 0  9998,2 53631  53.2163 226.8181 0002021  39.8143  68.7635 15.08843032 13701,6917.871,95.437,541.134,538.3380000000002,0.0
53631.0,STARLINK-4599,PAYLOAD,2022-11-24 14:00:01,15.0880445,0.0001886,53.2162,225.6947,43.8474,343.4296,0.0033465,0.00053323,0.0,0 STARLINK-4599,1 53631U 22104AV  22328.58334491  .00053323  00000-0  33465-2 0  9990,2 53631  53.2162 225.6947 0001886  43.8474 343.4296 15.08804450  1307,6917.989000000001,95.44,541.159,538.549,0.0
53631.0,STARLINK-4599,PAYLOAD,2022-11-24 22:00:00,15.08850195,0.0002059,53.2162,224.1997,43.1353,355.7143,-0.0013602,-0.00021877,0.0,0 STARLINK-4599,1 53631U 22104AV  22328.91667824 -.00021877  00000-0 -13602-2 0  9998,2 53631  53.2162 224.1997 0002059  43.1353 355.7143 15.08850195 13798,6917.849,95.437,541.139,538.29,0.0
53631.0,STARLINK-4599,PAYLOAD,2022-11-25 14:00:01,15.08802624,0.000192,53.216,221.2056,42.9827,19.0756,0.0034336,0.00054727,0.0,0 STARLINK-4599,1 53631U 22104AV  22329.58334491  .00054727  00000-0  34336-2 0  9998,2 53631  53.2160 221.2056 0001920  42.9827  19.0756 15.08802624  1307,6917.995,95.44,541.188,538.531,0.0
53631.0,STARLINK-4599,PAYLOAD,2022-11-25 22:00:00,15.08850736,0.0002106,53.216,219.7107,42.3947,31.2385,-0.00097878,-0.00015837,0.0,0 STARLINK-4599,1 53631U 22104AV  22329.91667824 -.00015837  00000-0 -97878-3 0  9996,2 53631  53.2160 219.7107 0002106  42.3947  31.2385 15.08850736 13944,6917.848000000001,95.437,541.169,538.256,0.0
53631.0,STARLINK-4599,PAYLOAD,2022-11-26 00:00:00,15.08840254,0.0002162,53.216,219.337,41.5471,124.9893,0.00040229,6.12e-05,0.0,0 STARLINK-4599,1 53631U 22104AV  22330.00001157  .00006120  00000-0  40229-3 0  9990,2 53631  53.2160 219.3370 0002162  41.5471 124.9893 15.08840254  1302,6917.88,95.438,541.24,538.249,0.0
53631.0,STARLINK-4599,PAYLOAD,2022-11-26 14:00:01,15.08847344,0.0001981,53.2161,216.7165,43.611,53.2415,0.00012552,1.7100000000000002e-05,0.0,0 STARLINK-4599,1 53631U 22104AV  22330.58334491  .00001710  00000-0  12552-3 0  9991,2 53631  53.2161 216.7165 0001981  43.6110  53.2415 15.08847344 14043,6917.858,95.437,541.0930000000002,538.3530000000002,0.0
53631.0,STARLINK-4599,PAYLOAD,2022-11-26 22:00:00,15.08861908,0.0002109,53.216,215.2216,40.6359,67.8194,-0.0031039,-0.00049379,0.0,0 STARLINK-4599,1 53631U 22104AV  22330.91667824 -.00049379  00000-0 -31039-2 0  9992,2 53631  53.2160 215.2216 0002109  40.6359  67.8194 15.08861908  1300,6917.813,95.436,541.137,538.219,0.0
53631.0,STARLINK-4599,PAYLOAD,2022-11-27 14:00:01,15.08808716,0.0001937,53.2162,212.2273,42.1684,89.4745,0.0028539,0.00045386,0.0,0 STARLINK-4599,1 53631U 22104AV  22331.58334491  .00045386  00000-0  28539-2 0  9990,2 53631  53.2162 212.2273 0001937  42.1684  89.4745 15.08808716  1308,6917.976,95.44,541.181,538.501,0.0
53631.0,STARLINK-4599,PAYLOAD,2022-11-27 22:00:00,15.08842308,0.0002112,53.2162,210.7325,40.245,102.9752,-0.0009578,-0.00015501,0.0,0 STARLINK-4599,1 53631U 22104AV  22331.91667824 -.00015501  00000-0 -95780-3 0  9997,2 53631  53.2162 210.7325 0002112  40.2450 102.9752 15.08842308  1309,6917.873000000001,95.437,541.1990000000002,538.2769999999998,0.0
53631.0,STARLINK-4599,PAYLOAD,2022-11-28 06:00:00,15.08859,0.0002107,53.216,209.236,37.8146,116.9947,-0.0033439,-0.00053143,0.0,0 STARLINK-4599,1 53631U 22104AV  22332.25001157 -.00053143  00000-0 -33439-2 0  9992,2 53631  53.2160 209.2360 0002107  37.8146 116.9947 15.08859000 14297,6917.821999999999,95.436,541.145,538.23,0.0
53631.0,STARLINK-4599,PAYLOAD,2022-11-28 22:00:01,15.08834533,0.0002078,53.2163,206.2434,39.741,138.3055,-0.00072062,-0.00011737,0.0,0 STARLINK-4599,1 53631U 22104AV  22332.91668981 -.00011737  00000-0 -72062-3 0  9998,2 53631  53.2163 206.2434 0002078  39.7410 138.3055 15.08834533  1301,6917.897,95.438,541.2,538.325,0.0
53631.0,STARLINK-4599,PAYLOAD,2022-11-29 14:00:01,15.08836649,0.0001959,53.2162,203.2491,46.1005,155.1252,-0.000607,-9.935e-05,0.0,0 STARLINK-4599,1 53631U 22104AV  22333.58335648 -.00009935  00000-0 -60700-3 0  9996,2 53631  53.2162 203.2491 0001959  46.1005 155.1252 15.08836649 14499,6917.891,95.438,541.111,538.4,0.0
53631.0,STARLINK-4599,PAYLOAD,2022-11-29 22:00:00,15.08822557,0.0002193,53.2161,201.7545,44.2111,168.543,-0.00039333,-6.54e-05,0.0,0 STARLINK-4599,1 53631U 22104AV  22333.91667824 -.00006540  00000-0 -39333-3 0  9994,2 53631  53.2161 201.7545 0002193  44.2111 168.5430 15.08822557  1304,6917.934,95.439,541.316,538.2819999999998,0.0
53631.0,STARLINK-4599,PAYLOAD,2022-11-30 14:00:01,15.08820136,0.0002038,53.2159,198.7595,49.8623,186.1097,0.002184,0.00034623,0.0,0 STARLINK-4599,1 53631U 22104AV  22334.58335648  .00034623  00000-0  21840-2 0  9998,2 53631  53.2159 198.7595 0002038  49.8623 186.1097 15.08820136  1304,6917.941,95.439,541.216,538.396,0.0
